{
  "type": "Feature",
  "properties": {
    "name": "track-20260813T094000Z.geojson",
    "start_time": "2026-08-13T09:40:05Z",
    "end_time": "2026-08-13T09:40:20Z",
    "point_count": 4,
    "sample_interval_seconds": 5,
    "times": [
      "2026-08-13T09:40:05Z",
      "2026-08-13T09:40:10Z",
      "2026-08-13T09:40:15Z",
      "2026-08-13T09:40:20Z"
    ]
  },
  "geometry": {
    "type": "LineString",
    "coordinates": [
      [0.854362, 51.065375, 7],
      [0.8544, 51.0655],
      [0.85445, 51.0656, 6],
      [0.8545, 51.0657]
    ]
  }
}
